[{"OBJECT_NAME":"STARLINK-5330","OBJECT_ID":"2023-010P","EPOCH":"2026-03-09T23:31:39.858816","MEAN_MOTION":14.98355549,"ECCENTRICITY":0.00030446,"INCLINATION":70,"RA_OF_ASC_NODE":43.5527,"ARG_OF_PERICENTER":271.5862,"MEAN_ANOMALY":88.4948,"EPHEMERIS_TYPE":0,"CLASSIFICATION_TYPE":"U","NORAD_CAT_ID":55282,"ELEMENT_SET_NO":999,"REV_AT_EPOCH":17282,"BSTAR":-0.00024546115,"MEAN_MOTION_DOT":-3.023e-5,"MEAN_MOTION_DDOT":0},{"OBJECT_NAME":"IKONOS 2","OBJECT_ID":"1999-051A","EPOCH":"2026-03-09T15:19:40.153152","MEAN_MOTION":14.96976552,"ECCENTRICITY":0.0006412,"INCLINATION":98.1486,"RA_OF_ASC_NODE":313.4587,"ARG_OF_PERICENTER":157.8343,"MEAN_ANOMALY":202.3156,"EPHEMERIS_TYPE":0,"CLASSIFICATION_TYPE":"U","NORAD_CAT_ID":25919,"ELEMENT_SET_NO":999,"REV_AT_EPOCH":42402,"BSTAR":0.00024901,"MEAN_MOTION_DOT":2.801e-5,"MEAN_MOTION_DDOT":0}]
